0 BEIDOU 8
1 37384U 11013A   19348.21597981 -.00000200  00000-0  10000-3 0  9995
2 37384  59.0183  63.5016 0046665 205.1713   9.7696  1.00257958 31840
0 CZ-3A R/B
1 37385U 11013B   19347.80854994 -.00000130  00000-0 -10262-2 0  9992
2 37385  55.5540  25.8368 6580237 245.8556  34.6269  2.63328082 82509
0 CZ-3A R/B
1 37385U 11013B   19347.04911382 -.00000146 +00000-0 -26018-2 0  9996
2 37385 055.5544 026.0109 6580129 245.7627 034.6981 02.63328135082383
0 RESOURCESAT 2
1 37387U 11015A   19347.91534382 -.00000004 +00000-0 +18244-4 0  9993
2 37387 098.7003 060.6522 0003892 185.7934 174.3186 14.21634810448935
0 RESOURCESAT 2
1 37387U 11015A   19348.12648801 -.00000007  00000-0  16734-4 0  9994
2 37387  98.7003  60.8603 0003906 185.2487 174.8652 14.21634802448968
0 RESOURCESAT 2
1 37387U 11015A   19348.40801319 -.00000008  00000-0  16353-4 0  9998
2 37387  98.7003  61.1379 0003898 184.6710 175.4434 14.21634834449000
0 RESOURCESAT 2
1 37387U 11015A   19348.68953822 -.00000006  00000-0  17387-4 0  9991
2 37387  98.7003  61.4154 0003926 183.6784 176.4366 14.21634903449042
0 YOUTHSAT
1 37388U 11015B   19348.44507655  .00000008  00000-0  21739-4 0  9992
2 37388  98.4510  42.9460 0015840 113.0137 258.2718 14.24268274449748
0 YOUTHSAT
1 37388U 11015B   19347.91457417 +.00000008 +00000-0 +21608-4 0  9998
2 37388 098.4511 042.4357 0015826 114.4531 058.3030 14.24268201449135
0 XSAT
1 37389U 11015C   19348.71662261 -.00000041  00000-0  17481-6 0  9997
2 37389  98.4644  46.1328 0015282 111.6847 248.5958 14.24379515449848
0 XSAT
1 37389U 11015C   19348.43563851 -.00000040  00000-0  70807-6 0  9991
2 37389  98.4645  45.8622 0015276 112.4921 247.7886 14.24379525449805
0 XSAT
1 37389U 11015C   19348.15465433 -.00000045  00000-0 -15651-5 0  9998
2 37389  98.4645  45.5915 0015268 113.1650 247.1144 14.24379447449764
0 PSLV R/B
1 37390U 11015D   19347.83203206 -.00000002 +00000-0 +15609-4 0  9996
2 37390 098.2795 003.5640 0019665 080.2534 322.1789 14.27259549450628
0 PSLV R/B
1 37390U 11015D   19348.18258288 -.00000004  00000-0  15031-4 0  9996
2 37390  98.2795   3.8960 0019658  79.2791 323.2961 14.27259593450657
0 INTELSAT NEW DAWN
1 37392U 11016A   19348.78379337  .00000168  00000-0  00000+0 0  9999
2 37392   0.0182  98.0521 0000897 151.3154 148.7719  1.00271819 31680
0 INTELSAT NEW DAWN
1 37392U 11016A   19347.85066536 +.00000171 +00000-0 +00000-0 0  9995
2 37392 000.0105 082.1710 0000948 162.0897 177.0337 01.00271479029465
0 YAHSAT 1A
1 37393U 11016B   19347.93035292 +.00000116 +00000-0 +00000-0 0  9999
2 37393 000.0175 335.3703 0002676 291.3228 203.0704 01.00270911018570
0 YAHSAT 1A
1 37393U 11016B   19348.78780623  .00000114  00000-0  00000+0 0  9995
2 37393   0.0185 341.2311 0002654 287.2183 150.8398  1.00271134 31731
0 ARIANE 5 R/B
1 37394U 11016C   19348.05713698  .00000255  00000-0  69096-4 0  9995
2 37394   5.5606 339.5501 6975653 197.6395 114.2066  2.67236486 78422
0 ARIANE 5 R/B
1 37394U 11016C   19347.68418217 +.00000286 +00000-0 +69683-4 0  9998
2 37394 005.5609 339.7367 6975658 197.2700 115.4064 02.67236323078452
0 MERIDIAN 4
1 37398U 11018A   19347.36068559 -.00000085 +00000-0 +10000-3 0  9995
2 37398 064.2327 059.9694 7216255 255.0136 099.5459 02.00619065063085
0 MERIDIAN 4
1 37398U 11018A   19348.24547645 -.00000072  00000-0  10000-3 0  9997
2 37398  64.2318  59.8499 7216607 255.0089  18.5737  2.00619345 63097
0 SL-26 R/B
1 37399U 11018B   19348.02760382 -.00001169  00000-0 -20326-2 0  9999
2 37399  64.3356  48.3914 7265406 256.6794  19.9699  2.00652415 63106
0 SL-26 R/B
1 37399U 11018B   19347.03085930 -.00001192 +00000-0 -26129-2 0  9991
2 37399 064.3369 048.5300 7265056 256.6859 019.9680 02.00654523063061
0 FENGYUN 1C DEB
1 37400U 99025EFS 19348.82378375  .00000176  00000-0  15911-3 0  9991
2 37400  98.8470 339.7329 0411785  82.2709 282.4978 13.60601803504436
0 FENGYUN 1C DEB
1 37401U 99025EFT 19347.87532824 +.00000135 +00000-0 +60817-4 0  9998
2 37401 098.6565 024.0578 0179675 196.5026 163.0260 14.28977456541333
0 FENGYUN 1C DEB
1 37402U 99025EFU 19347.05991328 +.00002156 +00000-0 +51336-3 0  9997
2 37402 099.3546 081.8745 0024309 352.8322 007.2521 14.54843590322513
0 FENGYUN 1C DEB
1 37402U 99025EFU 19348.50418398  .00002079  00000-0  49556-3 0  9994
2 37402  99.3543  83.4890 0024346 348.0659  11.9955 14.54849738547905
0 FENGYUN 1C DEB
1 37403U 99025EFV 19348.75886322  .00005687  00000-0  55325-3 0  9997
2 37403  98.9278 334.5113 0029462 217.1044 142.8135 14.92714028577948
0 FENGYUN 1C DEB
1 37404U 99025EFW 19347.94671506 +.00000315 +00000-0 +15366-3 0  9998
2 37404 098.5953 022.5728 0049801 100.4436 019.1056 14.24090025515094
0 FENGYUN 1C DEB
1 37404U 99025EFW 19347.94671506  .00000315  00000-0  15366-3 0  9998
2 37404  98.5953  22.5728 0049801 100.4436  19.1056 14.24090025515083
0 FENGYUN 1C DEB
1 37406U 99025EFY 19348.82742163  .00000351  00000-0  25209-3 0  9993
2 37406  98.3954 356.6039 0163359 291.4069 192.4672 13.96660038505834
0 FENGYUN 1C DEB
1 37408U 99025EGA 19347.42781928 +.00003571 +00000-0 +84727-3 0  9999
2 37408 098.5235 326.6217 0063815 007.0756 144.6526 14.53371470501280
0 FENGYUN 1C DEB
1 37410U 99025EGC 19347.14941247 +.00000491 +00000-0 +40129-3 0  9999
2 37410 098.1169 124.5574 0134400 075.8700 285.7354 13.89278498606698
0 FENGYUN 1C DEB
1 37410U 99025EGC 19348.58980326  .00000509  00000-0  41533-3 0  9999
2 37410  98.1169 125.8140 0134269  71.8382 289.7346 13.89280098606892
0 FENGYUN 1C DEB
1 37412U 99025EGE 19347.56439953 +.00001030 +00000-0 +41174-3 0  9994
2 37412 098.9618 109.7372 0020527 296.0301 063.8767 14.30593461309416
0 FENGYUN 1C DEB
1 37415U 99025EGH 19347.59398940 +.00000173 +00000-0 +25470-3 0  9998
2 37415 098.9728 281.0867 0289804 012.0075 348.7782 13.50413917327367
0 FENGYUN 1C DEB
1 37415U 99025EGH 19348.03851745  .00000172  00000-0  25356-3 0  9997
2 37415  98.9728 281.4881 0289792  10.8789 349.8439 13.50414106613552
0 FENGYUN 1C DEB
1 37416U 99025EGJ 19347.93473718  .00001098  00000-0  42713-3 0  9990
2 37416  99.2245 238.6488 0044026 197.5875 162.3784 14.31530182569594
0 FENGYUN 1C DEB
1 37416U 99025EGJ 19347.93473718 +.00001098 +00000-0 +42713-3 0  9990
2 37416 099.2245 238.6488 0044026 197.5875 162.3784 14.31530182292845
0 FENGYUN 1C DEB
1 37420U 99025EGN 19348.83299472 -.00000005  00000-0  26411-4 0  9994
2 37420  98.9362  21.7175 0074102 212.1203 147.5435 13.97300263558048
0 FENGYUN 1C DEB
1 37421U 99025EGP 19347.81170235 +.00000041 +00000-0 +87213-4 0  9993
2 37421 098.8395 178.0311 0413052 182.8957 176.9775 13.38695671316187
0 FENGYUN 1C DEB
1 37424U 99025EGS 19348.75861762  .00000297  00000-0  14815-3 0  9992
2 37424  97.1764 156.2491 0238144 283.4398  74.0338 14.08667178542748
0 FENGYUN 1C DEB
1 37425U 99025EGT 19348.75847604  .00000285  00000-0  26537-3 0  9993
2 37425  97.1553 331.0411 0169964 236.7312 249.1345 13.81257749547882
0 FENGYUN 1C DEB
1 37427U 99025EGV 19348.08902550  .00000351  00000-0  37409-4 0  9998
2 37427  98.6076 289.0301 0264426  78.4063 284.6696 14.73847633647202
0 FENGYUN 1C DEB
1 37435U 99025EHD 19347.40010694 +.00000386 +00000-0 +22666-3 0  9997
2 37435 098.8358 032.0787 0047019 161.8515 198.4348 14.13310213579243
0 FENGYUN 1C DEB
1 37436U 99025EHE 19347.29894314 +.00000495 +00000-0 +34486-3 0  9998
2 37436 099.2091 012.9565 0062849 107.8743 252.9290 14.02542985332526
0 FENGYUN 1C DEB
1 37436U 99025EHE 19348.29767685  .00000509  00000-0  35343-3 0  9998
2 37436  99.2091  13.9658 0062839 105.1564 255.6563 14.02544044589672
0 FENGYUN 1C DEB
1 37438U 99025EHG 19347.81342254 +.00000317 +00000-0 +20329-3 0  9993
2 37438 098.9733 021.9456 0030604 305.1697 054.6607 14.10266108292175
0 FENGYUN 1C DEB
1 37439U 99025EHH 19348.32201714  .00000761  00000-0  48788-3 0  9998
2 37439  99.1730  19.3153 0068119 105.5633 316.7069 14.05288303543599
0 FENGYUN 1C DEB
1 37441U 99025EHK 19347.55832774 +.00000231 +00000-0 +39203-3 0  9995
2 37441 099.1896 098.0288 0525267 211.1569 145.7398 13.09791272534549
0 FENGYUN 1C DEB
1 37444U 99025EHN 19347.04230991 +.00000168 +00000-0 +52838-4 0  9994
2 37444 099.0615 259.7039 0292439 297.5320 059.6427 14.33251313336603
0 FENGYUN 1C DEB
1 37444U 99025EHN 19348.01964797  .00000156  00000-0  50346-4 0  9999
2 37444  99.0616 260.7282 0292396 294.6744  62.4252 14.33251691537921
0 FENGYUN 1C DEB
1 37447U 99025EHR 19347.92810576  .00000258  00000-0  16663-3 0  9992
2 37447  99.0594  20.3362 0042601 310.9519 170.1210 14.11336342547501
0 FENGYUN 1C DEB
1 37447U 99025EHR 19347.92810576 +.00000258 +00000-0 +16663-3 0  9992
2 37447 099.0594 020.3362 0042601 310.9519 170.1210 14.11336342325101
0 FENGYUN 1C DEB
1 37448U 99025EHS 19347.35053754 +.00000285 +00000-0 +22187-3 0  9995
2 37448 099.5199 027.2629 0335443 088.0365 275.9160 13.76314989321568
0 FENGYUN 1C DEB
1 37448U 99025EHS 19348.36827962  .00000322  00000-0  24724-3 0  9998
2 37448  99.5197  28.2820 0335384  85.3734 278.5634 13.76316262626237
0 FENGYUN 1C DEB
1 37449U 99025EHT 19348.51134776  .00000683  00000-0  73478-4 0  9991
2 37449  98.8278  81.2855 0148120  81.5442 280.2527 14.84877879551022
0 FENGYUN 1C DEB
1 37449U 99025EHT 19347.02886261 +.00000697 +00000-0 +74871-4 0  9992
2 37449 098.8279 079.6440 0148165 086.2400 275.5739 14.84875681550850
0 FENGYUN 1C DEB
1 37454U 99025EHY 19347.66346944 +.00004392 +00000-0 +43735-3 0  9997
2 37454 098.9639 049.1062 0042619 074.1985 286.3923 14.91582096513251
0 FENGYUN 1C DEB
1 37454U 99025EHY 19348.60262679  .00003990  00000-0  39803-3 0  9998
2 37454  98.9633  50.1722 0042521  71.1560 289.4259 14.91589593514108
